{
  "type": "FeatureCollection",
  "features": [
    {
      "type": "Feature",
      "properties": {
        "norad_id": 30280,
        "name": "FENGYUN 1C DEB",
        "group": "fengyun-1c-debris",
        "lat": 71.4609812541088,
        "lon": 173.83163806290682,
        "alt_km": 910.7623159164605,
        "timestamp": "2025-12-02T13:52:17.537345+00:00",
        "meta_object_name": "FENGYUN 1C DEB",
        "meta_object_id": "1999-025YR",
        "meta_epoch": "2025-12-01T22:12:31.876416",
        "meta_mean_motion": 13.98320695,
        "meta_eccentricity": 0.00809719,
        "meta_inclination": 98.7747,
        "meta_ra_of_asc_node": 325.7837,
        "meta_arg_of_pericenter": 359.8733,
        "meta_mean_anomaly": 62.1986,
        "meta_ephemeris_type": 0,
        "meta_classification_type": "U",
        "meta_norad_cat_id": 30280,
        "meta_element_set_no": 999,
        "meta_rev_at_epoch": 96255,
        "meta_bstar": 0.00036498331,
        "meta_mean_motion_dot": 4.94e-06,
        "meta_mean_motion_ddot": 0,
        "tle_line1": "1 30280U 99025YR  25335.92536894  .00000494  00000+0  36498-3 0  9991",
        "tle_line2": "2 30280  98.7747 325.7837 0080971 359.8733  62.1986 13.98320695962550"
      },
      "geometry": {
        "type": "Point",
        "coordinates": [
          173.83163806290682,
          71.4609812541088
        ]
      }
    },
    {
      "type": "Feature",
      "properties": {
        "norad_id": 30281,
        "name": "FENGYUN 1C DEB",
        "group": "fengyun-1c-debris",
        "lat": -62.120579271647905,
        "lon": 129.7158268037233,
        "alt_km": 846.4710892975108,
        "timestamp": "2025-12-02T13:52:17.537355+00:00",
        "meta_object_name": "FENGYUN 1C DEB",
        "meta_object_id": "1999-025YS",
        "meta_epoch": "2025-12-01T23:23:04.546752",
        "meta_mean_motion": 14.10460387,
        "meta_eccentricity": 0.0027812,
        "meta_inclination": 98.7563,
        "meta_ra_of_asc_node": 326.0664,
        "meta_arg_of_pericenter": 268.598,
        "meta_mean_anomaly": 151.6194,
        "meta_ephemeris_type": 0,
        "meta_classification_type": "U",
        "meta_norad_cat_id": 30281,
        "meta_element_set_no": 999,
        "meta_rev_at_epoch": 97069,
        "meta_bstar": 0.00027553213,
        "meta_mean_motion_dot": 4.49e-06,
        "meta_mean_motion_ddot": 0,
        "tle_line1": "1 30281U 99025YS  25335.97435818  .00000449  00000+0  27553-3 0  9993",
        "tle_line2": "2 30281  98.7563 326.0664 0027812 268.5980 151.6194 14.10460387970691"
      },
      "geometry": {
        "type": "Point",
        "coordinates": [
          129.7158268037233,
          -62.120579271647905
        ]
      }
    },
    {
      "type": "Feature",
      "properties": {
        "norad_id": 30282,
        "name": "FENGYUN 1C DEB",
        "group": "fengyun-1c-debris",
        "lat": -79.52019861976865,
        "lon": 106.37505785234376,
        "alt_km": 947.0849695541583,
        "timestamp": "2025-12-02T13:52:17.537366+00:00",
        "meta_object_name": "FENGYUN 1C DEB",
        "meta_object_id": "1999-025YT",
        "meta_epoch": "2025-12-01T23:17:39.020064",
        "meta_mean_motion": 14.12945333,
        "meta_eccentricity": 0.02109264,
        "meta_inclination": 98.5016,
        "meta_ra_of_asc_node": 339.7592,
        "meta_arg_of_pericenter": 32.9345,
        "meta_mean_anomaly": 25.0359,
        "meta_ephemeris_type": 0,
        "meta_classification_type": "U",
        "meta_norad_cat_id": 30282,
        "meta_element_set_no": 999,
        "meta_rev_at_epoch": 97199,
        "meta_bstar": 0.00035905557,
        "meta_mean_motion_dot": 7.85e-06,
        "meta_mean_motion_ddot": 0,
        "tle_line1": "1 30282U 99025YT  25335.97059051  .00000785  00000+0  35906-3 0  9999",
        "tle_line2": "2 30282  98.5016 339.7592 0210926  32.9345  25.0359 14.12945333971994"
      },
      "geometry": {
        "type": "Point",
        "coordinates": [
          106.37505785234376,
          -79.52019861976865
        ]
      }
    },
    {
      "type": "Feature",
      "properties": {
        "norad_id": 30283,
        "name": "FENGYUN 1C DEB",
        "group": "fengyun-1c-debris",
        "lat": -56.78117926060893,
        "lon": 136.74613189257462,
        "alt_km": 1024.6920643514304,
        "timestamp": "2025-12-02T13:52:17.537376+00:00",
        "meta_object_name": "FENGYUN 1C DEB",
        "meta_object_id": "1999-025YU",
        "meta_epoch": "2025-12-01T23:18:17.012736",
        "meta_mean_motion": 14.01970887,
        "meta_eccentricity": 0.01852726,
        "meta_inclination": 98.8676,
        "meta_ra_of_asc_node": 329.9475,
        "meta_arg_of_pericenter": 73.1317,
        "meta_mean_anomaly": 342.5031,
        "meta_ephemeris_type": 0,
        "meta_classification_type": "U",
        "meta_norad_cat_id": 30283,
        "meta_element_set_no": 999,
        "meta_rev_at_epoch": 96540,
        "meta_bstar": 1.213078e-06,
        "meta_mean_motion_dot": -3.9e-07,
        "meta_mean_motion_ddot": 0,
        "tle_line1": "1 30283U 99025YU  25335.97103024 -.00000039  00000+0  12131-5 0  9990",
        "tle_line2": "2 30283  98.8676 329.9475 0185272  73.1317 342.5031 14.01970887965405"
      },
      "geometry": {
        "type": "Point",
        "coordinates": [
          136.74613189257462,
          -56.78117926060893
        ]
      }
    },
    {
      "type": "Feature",
      "properties": {
        "norad_id": 30284,
        "name": "FENGYUN 1C DEB",
        "group": "fengyun-1c-debris",
        "lat": -21.48721218276904,
        "lon": -138.4426126443437,
        "alt_km": 789.4119062073387,
        "timestamp": "2025-12-02T13:52:17.537387+00:00",
        "meta_object_name": "FENGYUN 1C DEB",
        "meta_object_id": "1999-025YV",
        "meta_epoch": "2025-12-01T03:37:51.398112",
        "meta_mean_motion": 14.28625807,
        "meta_eccentricity": 0.00382618,
        "meta_inclination": 98.7224,
        "meta_ra_of_asc_node": 43.5961,
        "meta_arg_of_pericenter": 141.8292,
        "meta_mean_anomaly": 286.0013,
        "meta_ephemeris_type": 0,
        "meta_classification_type": "U",
        "meta_norad_cat_id": 30284,
        "meta_element_set_no": 999,
        "meta_rev_at_epoch": 97350,
        "meta_bstar": 0.0016632164,
        "meta_mean_motion_dot": 4.167e-05,
        "meta_mean_motion_ddot": 0,
        "tle_line1": "1 30284U 99025YV  25335.15128933  .00004167  00000+0  16632-2 0  9999",
        "tle_line2": "2 30284  98.7224  43.5961 0038261 141.8292 286.0013 14.28625807973503"
      },
      "geometry": {
        "type": "Point",
        "coordinates": [
          -138.4426126443437,
          -21.48721218276904
        ]
      }
    },
    {
      "type": "Feature",
      "properties": {
        "norad_id": 30286,
        "name": "FENGYUN 1C DEB",
        "group": "fengyun-1c-debris",
        "lat": 44.08391303991083,
        "lon": 169.7608931668451,
        "alt_km": 804.589729393364,
        "timestamp": "2025-12-02T13:52:17.537397+00:00",
        "meta_object_name": "FENGYUN 1C DEB",
        "meta_object_id": "1999-025YX",
        "meta_epoch": "2025-12-01T23:53:45.399840",
        "meta_mean_motion": 14.12717372,
        "meta_eccentricity": 0.00642649,
        "meta_inclination": 98.6902,
        "meta_ra_of_asc_node": 340.6774,
        "meta_arg_of_pericenter": 163.1013,
        "meta_mean_anomaly": 252.5362,
        "meta_ephemeris_type": 0,
        "meta_classification_type": "U",
        "meta_norad_cat_id": 30286,
        "meta_element_set_no": 999,
        "meta_rev_at_epoch": 97307,
        "meta_bstar": 0.00010200498,
        "meta_mean_motion_dot": 1.51e-06,
        "meta_mean_motion_ddot": 0,
        "tle_line1": "1 30286U 99025YX  25335.99566435  .00000151  00000+0  10200-3 0  9991",
        "tle_line2": "2 30286  98.6902 340.6774 0064264 163.1013 252.5362 14.12717372973079"
      },
      "geometry": {
        "type": "Point",
        "coordinates": [
          169.7608931668451,
          44.08391303991083
        ]
      }
    },
    {
      "type": "Feature",
      "properties": {
        "norad_id": 30287,
        "name": "FENGYUN 1C DEB",
        "group": "fengyun-1c-debris",
        "lat": 12.393715008138559,
        "lon": -166.26153346097374,
        "alt_km": 1186.127614249086,
        "timestamp": "2025-12-02T13:52:17.537407+00:00",
        "meta_object_name": "FENGYUN 1C DEB",
        "meta_object_id": "1999-025YY",
        "meta_epoch": "2025-12-02T02:52:27.480864",
        "meta_mean_motion": 13.6853947,
        "meta_eccentricity": 0.04139503,
        "meta_inclination": 98.6387,
        "meta_ra_of_asc_node": 11.4123,
        "meta_arg_of_pericenter": 40.5539,
        "meta_mean_anomaly": 26.6837,
        "meta_ephemeris_type": 0,
        "meta_classification_type": "U",
        "meta_norad_cat_id": 30287,
        "meta_element_set_no": 999,
        "meta_rev_at_epoch": 93713,
        "meta_bstar": 0.0010524241,
        "meta_mean_motion_dot": 1.608e-05,
        "meta_mean_motion_ddot": 0,
        "tle_line1": "1 30287U 99025YY  25336.11976251  .00001608  00000+0  10524-2 0  9994",
        "tle_line2": "2 30287  98.6387  11.4123 0413950  40.5539  26.6837 13.68539470937134"
      },
      "geometry": {
        "type": "Point",
        "coordinates": [
          -166.26153346097374,
          12.393715008138559
        ]
      }
    }
  ]
}